NORAD_CAT_ID,OBJECT_NAME,OBJECT_TYPE,EPOCH,MEAN_MOTION,ECCENTRICITY,INCLINATION,RA_OF_ASC_NODE,ARG_OF_PERICENTER,MEAN_ANOMALY,BSTAR,MEAN_MOTION_DOT,MEAN_MOTION_DDOT,TLE_LINE0,TLE_LINE1,TLE_LINE2,SEMIMAJOR_AXIS,PERIOD,APOGEE,PERIGEE,DECAYED
49168.0,STARLINK-3101,PAYLOAD,2023-12-27 18:29:48,14.98333431,0.0002758,70.0,138.8891,267.5863,92.4981,0.00010266,1.132e-05,0.0,0 STARLINK-3101,1 49168U 21082AQ  23361.77070047  .00001132  00000-0  10266-3 0  9993,2 49168  70.0000 138.8891 0002758 267.5863  92.4981 14.98333431127400,6950.182,96.107,573.964,570.13,0.0
49168.0,STARLINK-3101,PAYLOAD,2023-12-28 12:07:17,14.98323934,0.0002907,70.0001,137.0377,262.2362,97.8467,-2.0207e-05,-3.34e-06,0.0,0 STARLINK-3101,1 49168U 21082AQ  23362.50506805 -.00000334  00000-0 -20207-4 0  9993,2 49168  70.0001 137.0377 0002907 262.2362  97.8467 14.98323934127510,6950.212,96.107,574.097,570.056,0.0
49168.0,STARLINK-3101,PAYLOAD,2023-12-28 13:43:25,14.98325496,0.0002943,69.9997,136.8689,262.9479,97.1346,-1.3476e-05,-2.54e-06,0.0,0 STARLINK-3101,1 49168U 21082AQ  23362.57182698 -.00000254  00000-0 -13476-4 0  9991,2 49168  69.9997 136.8689 0002943 262.9479  97.1346 14.98325496127525,6950.207,96.107,574.117,570.026,0.0
49168.0,STARLINK-3101,PAYLOAD,2023-12-28 18:31:50,14.98326116,0.0002804,70.0003,136.3649,261.2538,98.8304,6.0915e-06,-2e-07,0.0,0 STARLINK-3101,1 49168U 21082AQ  23362.77210674 -.00000020  00000-0  60915-5 0  9990,2 49168  70.0003 136.3649 0002804 261.2538  98.8304 14.98326116127556,6950.205,96.107,574.019,570.121,0.0
49168.0,STARLINK-3101,PAYLOAD,2023-12-29 12:09:18,14.98330269,0.0003015,70.0,134.5132,268.5649,91.5165,4.4954e-05,4.43e-06,0.0,0 STARLINK-3101,1 49168U 21082AQ  23363.50646353  .00000443  00000-0  44954-4 0  9991,2 49168  70.0000 134.5132 0003015 268.5649  91.5165 14.98330269127669,6950.192,96.107,574.153,569.962,0.0
49168.0,STARLINK-3101,PAYLOAD,2023-12-29 13:45:26,14.98330634,0.0002932,69.9999,134.3444,266.7222,93.3601,4.2537e-05,4.15e-06,0.0,0 STARLINK-3101,1 49168U 21082AQ  23363.57322312  .00000415  00000-0  42537-4 0  9998,2 49168  69.9999 134.3444 0002932 266.7222  93.3601 14.98330634127673,6950.191,96.107,574.094,570.018,0.0
49168.0,STARLINK-3101,PAYLOAD,2023-12-29 18:33:49,14.98384267,0.0003087,70.0002,133.8402,260.4256,99.6554,-0.00086435,-0.00010406,0.0,0 STARLINK-3101,1 49168U 21082AQ  23363.77348532 -.00010406  00000-0 -86435-3 0  9999,2 49168  70.0002 133.8402 0003087 260.4256  99.6554 14.98384267127700,6950.025,96.104,574.036,569.745,0.0
49168.0,STARLINK-3101,PAYLOAD,2023-12-30 12:11:19,14.98330062,0.000284,70.0002,131.989,262.7626,97.3211,0.00011619,1.294e-05,0.0,0 STARLINK-3101,1 49168U 21082AQ  23364.50786046  .00001294  00000-0  11619-3 0  9992,2 49168  70.0002 131.9890 0002840 262.7626  97.3211 14.98330062127813,6950.193,96.107,574.032,570.084,0.0
49168.0,STARLINK-3101,PAYLOAD,2023-12-30 13:47:27,14.98329898,0.000285,70.0002,131.8205,262.916,97.1675,0.00011217,1.246e-05,0.0,0 STARLINK-3101,1 49168U 21082AQ  23364.57462078  .00001246  00000-0  11217-3 0  9996,2 49168  70.0002 131.8205 0002850 262.9160  97.1675 14.98329898127826,6950.193,96.107,574.039,570.077,0.0
49168.0,STARLINK-3101,PAYLOAD,2023-12-30 18:35:51,14.98331496,0.0002844,70.0003,131.3158,263.0084,97.0751,0.00012517,1.401e-05,0.0,0 STARLINK-3101,1 49168U 21082AQ  23364.77489966  .00001401  00000-0  12517-3 0  9990,2 49168  70.0003 131.3158 0002844 263.0084  97.0751 14.98331496127853,6950.188,96.107,574.03,570.077,0.0
49168.0,STARLINK-3101,PAYLOAD,2023-12-31 12:13:20,14.98330251,0.0002831,70.0003,129.4637,262.8513,97.2324,3.0815e-06,-5.6e-07,0.0,0 STARLINK-3101,1 49168U 21082AQ  23365.50926294 -.00000056  00000-0  30815-5 0  9991,2 49168  70.0003 129.4637 0002831 262.8513  97.2324 14.98330251127961,6950.192,96.107,574.025,570.09,0.0
49168.0,STARLINK-3101,PAYLOAD,2023-12-31 18:37:52,14.98332706,0.0002801,70.0004,128.7904,263.1884,96.8956,2.9405e-05,2.58e-06,0.0,0 STARLINK-3101,1 49168U 21082AQ  23365.77630030  .00000258  00000-0  29405-4 0  9995,2 49168  70.0004 128.7904 0002801 263.1884  96.8956 14.98332706128002,6950.185,96.107,573.996,570.103,0.0
49168.0,STARLINK-3101,PAYLOAD,2024-01-01 12:15:21,14.9833114,0.0002744,70.0005,126.9385,266.7593,93.3252,2.6055e-05,2.18e-06,0.0,0 STARLINK-3101,1 49168U 21082AQ  24001.51066053  .00000218  00000-0  26055-4 0  9997,2 49168  70.0005 126.9385 0002744 266.7593  93.3252 14.98331140128112,6950.189,96.107,573.961,570.147,0.0
49168.0,STARLINK-3101,PAYLOAD,2024-01-01 13:51:29,14.98331198,0.0002542,70.0003,126.7701,262.1691,97.918,1.1396e-05,4.3e-07,0.0,0 STARLINK-3101,1 49168U 21082AQ  24001.57742098  .00000043  00000-0  11396-4 0  9991,2 49168  70.0003 126.7701 0002542 262.1691  97.9180 14.98331198128129,6950.189,96.107,573.821,570.287,0.0
49168.0,STARLINK-3101,PAYLOAD,2024-01-01 18:39:51,14.98356678,0.0003076,70.0006,126.2652,272.1861,87.8946,0.0003133,3.65e-05,0.0,0 STARLINK-3101,1 49168U 21082AQ  24001.77767732  .00003650  00000-0  31330-3 0  9991,2 49168  70.0006 126.2652 0003076 272.1861  87.8946 14.98356678128156,6950.11,96.105,574.113,569.838,0.0
49168.0,STARLINK-3101,PAYLOAD,2024-01-02 12:17:22,14.98325493,0.0002842,70.0004,124.4136,264.211,95.8725,-8.5973e-06,-1.96e-06,0.0,0 STARLINK-3101,1 49168U 21082AQ  24002.51206168 -.00000196  00000-0 -85973-5 0  9993,2 49168  70.0004 124.4136 0002842 264.2110  95.8725 14.98325493128267,6950.207,96.107,574.047,570.097,0.0
49168.0,STARLINK-3101,PAYLOAD,2024-01-02 13:53:30,14.983265,0.0002981,69.9999,124.2447,267.0878,92.9939,1.7797e-06,-7.2e-07,0.0,0 STARLINK-3101,1 49168U 21082AQ  24002.57882097 -.00000072  00000-0  17797-5 0  9991,2 49168  69.9999 124.2447 0002981 267.0878  92.9939 14.98326500128272,6950.204,96.107,574.141,569.997,0.0
49168.0,STARLINK-3101,PAYLOAD,2024-01-02 18:41:54,14.98327516,0.0002722,70.0005,123.7404,259.9227,100.1625,3.1221e-05,2.8e-06,0.0,0 STARLINK-3101,1 49168U 21082AQ  24002.77909994  .00000280  00000-0  31221-4 0  9996,2 49168  70.0005 123.7404 0002722 259.9227 100.1625 14.98327516128307,6950.201,96.107,573.957,570.174,0.0
49168.0,STARLINK-3101,PAYLOAD,2024-01-03 12:19:23,14.98324558,0.000278,69.9999,121.8876,260.3097,99.7748,-3.0521e-05,-4.57e-06,0.0,0 STARLINK-3101,1 49168U 21082AQ  24003.51346424 -.00000457  00000-0 -30521-4 0  9992,2 49168  69.9999 121.8876 0002780 260.3097  99.7748 14.98324558128417,6950.21,96.107,574.007,570.143,0.0
49168.0,STARLINK-3101,PAYLOAD,2024-01-03 13:55:31,14.9832182,0.0002882,69.9999,121.7199,267.1732,92.9097,-7.0594e-05,-9.35e-06,0.0,0 STARLINK-3101,1 49168U 21082AQ  24003.58022761 -.00000935  00000-0 -70594-4 0  9999,2 49168  69.9999 121.7199 0002882 267.1732  92.9097 14.98321820128420,6950.218,96.108,574.086,570.08,0.0
49168.0,STARLINK-3101,PAYLOAD,2024-01-03 17:07:47,14.98325639,0.0002862,70.0001,121.3837,263.4308,96.6525,-2.1213e-05,-3.46e-06,0.0,0 STARLINK-3101,1 49168U 21082AQ  24003.71374417 -.00000346  00000-0 -21213-4 0  9992,2 49168  70.0001 121.3837 0002862 263.4308  96.6525 14.98325639128449,6950.206,96.107,574.061,570.082,0.0
49168.0,STARLINK-3101,PAYLOAD,2024-01-04 12:21:23,14.98327893,0.0003036,69.9997,119.3634,266.2491,93.8321,9.5404e-05,1.045e-05,0.0,0 STARLINK-3101,1 49168U 21082AQ  24004.51485966  .00001045  00000-0  95404-4 0  9991,2 49168  69.9997 119.3634 0003036 266.2491  93.8321 14.98327893128560,6950.199,96.107,574.174,569.954,0.0
49168.0,STARLINK-3101,PAYLOAD,2024-01-04 13:57:31,14.98328715,0.0003072,69.9997,119.1948,267.7268,92.354,9.1565e-05,1e-05,0.0,0 STARLINK-3101,1 49168U 21082AQ  24004.58161939  .00001000  00000-0  91565-4 0  9994,2 49168  69.9997 119.1948 0003072 267.7268  92.3540 14.98328715128576,6950.197,96.107,574.197,569.927,0.0
49168.0,STARLINK-3101,PAYLOAD,2024-01-04 17:09:47,14.98332711,0.0002913,70.0,118.8587,266.407,93.6756,0.00012866,1.443e-05,0.0,0 STARLINK-3101,1 49168U 21082AQ  24004.71513588  .00001443  00000-0  12866-3 0  9997,2 49168  70.0000 118.8587 0002913 266.4070  93.6756 14.98332711128595,6950.185,96.107,574.074,570.025,0.0
49168.0,STARLINK-3101,PAYLOAD,2024-01-05 12:23:25,14.98325401,0.0002792,70.0003,116.8383,265.7073,94.3767,9.7277e-05,1.068e-05,0.0,0 STARLINK-3101,1 49168U 21082AQ  24005.51626191  .00001068  00000-0  97277-4 0  9994,2 49168  70.0003 116.8383 0002792 265.7073  94.3767 14.98325401128712,6950.207,96.107,574.013,570.132,0.0
49168.0,STARLINK-3101,PAYLOAD,2024-01-05 13:59:33,14.98327373,0.0002804,70.0003,116.6699,266.1268,93.9571,6.2668e-05,6.55e-06,0.0,0 STARLINK-3101,1 49168U 21082AQ  24005.58302182  .00000655  00000-0  62668-4 0  9999,2 49168  70.0003 116.6699 0002804 266.1268  93.9571 14.98327373128724,6950.201,96.107,574.015,570.117,0.0
49168.0,STARLINK-3101,PAYLOAD,2024-01-05 17:11:49,14.98327803,0.0002783,70.0004,116.3336,265.2004,94.8837,0.00013373,1.503e-05,0.0,0 STARLINK-3101,1 49168U 21082AQ  24005.71653993  .00001503  00000-0  13373-3 0  9994,2 49168  70.0004 116.3336 0002783 265.2004  94.8837 14.98327803128749,6950.2,96.107,573.999,570.13,0.0
49168.0,STARLINK-3101,PAYLOAD,2024-01-06 12:25:25,14.98330387,0.0002665,70.0005,114.314,264.2419,95.8436,1.0183e-05,2.9e-07,0.0,0 STARLINK-3101,1 49168U 21082AQ  24006.51766124  .00000029  00000-0  10183-4 0  9993,2 49168  70.0005 114.3140 0002665 264.2419  95.8436 14.98330387128869,6950.192,96.107,573.909,570.204,0.0
49168.0,STARLINK-3101,PAYLOAD,2024-01-06 17:13:50,14.9833068,0.0002727,70.0005,113.8092,264.9598,95.125,-1.7975e-05,-3.07e-06,0.0,0 STARLINK-3101,1 49168U 21082AQ  24006.71794164 -.00000307  00000-0 -17975-4 0  9997,2 49168  70.0005 113.8092 0002727 264.9598  95.1250 14.98330680128899,6950.191,96.107,573.951,570.16,0.0
49168.0,STARLINK-3101,PAYLOAD,2024-01-07 12:27:26,14.98328979,0.0002724,70.0004,111.7894,267.3044,92.7803,4.5977e-05,4.56e-06,0.0,0 STARLINK-3101,1 49168U 21082AQ  24007.51906088  .00000456  00000-0  45977-4 0  9992,2 49168  70.0004 111.7894 0002724 267.3044  92.7803 14.98328979129015,6950.196,96.107,573.954,570.168,0.0
